O3B MPOWER F1           
1 54755U 22174A   23301.05276527 -.00000021  00000+0  00000+0 0  9997
2 54755   0.0517  19.1375 0005301 212.2501  97.8192  5.00118431 17163
